{
  "type": "FeatureCollection",
  "features": [
    {
      "type": "Feature",
      "properties": {
        "norad_id": 35462,
        "name": "COSMOS 2251 DEB",
        "group": "cosmos-2251-debris",
        "lat": -40.575379779030364,
        "lon": -87.63295861530463,
        "alt_km": 738.7045083767189,
        "timestamp": "2025-12-02T21:34:01.666942+00:00",
        "meta_object_name": "COSMOS 2251 DEB",
        "meta_object_id": "1993-036ALG",
        "meta_epoch": "2025-12-01T03:45:45.448128",
        "meta_mean_motion": 14.29124029,
        "meta_eccentricity": 0.00870444,
        "meta_inclination": 74.036,
        "meta_ra_of_asc_node": 289.718,
        "meta_arg_of_pericenter": 327.319,
        "meta_mean_anomaly": 32.2589,
        "meta_ephemeris_type": 0,
        "meta_classification_type": "U",
        "meta_norad_cat_id": 35462,
        "meta_element_set_no": 999,
        "meta_rev_at_epoch": 66215,
        "meta_bstar": 0.0017949723,
        "meta_mean_motion_dot": 4.718e-05,
        "meta_mean_motion_ddot": 0,
        "tle_line1": "1 35462U 93036ALG 25335.15677602  .00004718  00000+0  17950-2 0  9996",
        "tle_line2": "2 35462  74.0360 289.7180 0087044 327.3190  32.2589 14.29124029662158"
      },
      "geometry": {
        "type": "Point",
        "coordinates": [
          -87.63295861530463,
          -40.575379779030364
        ]
      }
    },
    {
      "type": "Feature",
      "properties": {
        "norad_id": 35465,
        "name": "COSMOS 2251 DEB",
        "group": "cosmos-2251-debris",
        "lat": -22.25515440527092,
        "lon": 42.12386813169486,
        "alt_km": 794.4141619253469,
        "timestamp": "2025-12-02T21:34:01.666952+00:00",
        "meta_object_name": "COSMOS 2251 DEB",
        "meta_object_id": "1993-036ALK",
        "meta_epoch": "2025-11-29T22:48:34.232544",
        "meta_mean_motion": 14.44263019,
        "meta_eccentricity": 0.00634289,
        "meta_inclination": 73.9997,
        "meta_ra_of_asc_node": 220.8763,
        "meta_arg_of_pericenter": 24.0529,
        "meta_mean_anomaly": 336.3567,
        "meta_ephemeris_type": 0,
        "meta_classification_type": "U",
        "meta_norad_cat_id": 35465,
        "meta_element_set_no": 999,
        "meta_rev_at_epoch": 87057,
        "meta_bstar": 0.00049692277,
        "meta_mean_motion_dot": 1.723e-05,
        "meta_mean_motion_ddot": 0,
        "tle_line1": "1 35465U 93036ALK 25333.95039621  .00001723  00000+0  49692-3 0  9990",
        "tle_line2": "2 35465  73.9997 220.8763 0063428  24.0529 336.3567 14.44263019870576"
      },
      "geometry": {
        "type": "Point",
        "coordinates": [
          42.12386813169486,
          -22.25515440527092
        ]
      }
    },
    {
      "type": "Feature",
      "properties": {
        "norad_id": 35469,
        "name": "COSMOS 2251 DEB",
        "group": "cosmos-2251-debris",
        "lat": -23.398377441385495,
        "lon": -130.50733322063778,
        "alt_km": 676.4921220978458,
        "timestamp": "2025-12-02T21:34:01.666962+00:00",
        "meta_object_name": "COSMOS 2251 DEB",
        "meta_object_id": "1993-036ALP",
        "meta_epoch": "2025-12-01T11:30:18.514944",
        "meta_mean_motion": 14.49801168,
        "meta_eccentricity": 0.00774879,
        "meta_inclination": 74.0179,
        "meta_ra_of_asc_node": 45.0354,
        "meta_arg_of_pericenter": 203.0672,
        "meta_mean_anomaly": 156.7004,
        "meta_ephemeris_type": 0,
        "meta_classification_type": "U",
        "meta_norad_cat_id": 35469,
        "meta_element_set_no": 999,
        "meta_rev_at_epoch": 87948,
        "meta_bstar": 0.0001544866,
        "meta_mean_motion_dot": 5.89e-06,
        "meta_mean_motion_ddot": 0,
        "tle_line1": "1 35469U 93036ALP 25335.47938096  .00000589  00000+0  15449-3 0  9999",
        "tle_line2": "2 35469  74.0179  45.0354 0077487 203.0672 156.7004 14.49801168879482"
      },
      "geometry": {
        "type": "Point",
        "coordinates": [
          -130.50733322063778,
          -23.398377441385495
        ]
      }
    },
    {
      "type": "Feature",
      "properties": {
        "norad_id": 35475,
        "name": "COSMOS 2251 DEB",
        "group": "cosmos-2251-debris",
        "lat": 70.16774002905629,
        "lon": -122.69070030123038,
        "alt_km": 670.8338302663678,
        "timestamp": "2025-12-02T21:34:01.666972+00:00",
        "meta_object_name": "COSMOS 2251 DEB",
        "meta_object_id": "1993-036ALV",
        "meta_epoch": "2025-12-02T06:30:21.330144",
        "meta_mean_motion": 14.69388033,
        "meta_eccentricity": 0.0021308,
        "meta_inclination": 74.022,
        "meta_ra_of_asc_node": 185.9231,
        "meta_arg_of_pericenter": 259.5642,
        "meta_mean_anomaly": 100.3127,
        "meta_ephemeris_type": 0,
        "meta_classification_type": "U",
        "meta_norad_cat_id": 35475,
        "meta_element_set_no": 999,
        "meta_rev_at_epoch": 65463,
        "meta_bstar": 0.0018441,
        "meta_mean_motion_dot": 0.00010931,
        "meta_mean_motion_ddot": 0,
        "tle_line1": "1 35475U 93036ALV 25336.27108021  .00010931  00000+0  18441-2 0  9998",
        "tle_line2": "2 35475  74.0220 185.9231 0021308 259.5642 100.3127 14.69388033654630"
      },
      "geometry": {
        "type": "Point",
        "coordinates": [
          -122.69070030123038,
          70.16774002905629
        ]
      }
    },
    {
      "type": "Feature",
      "properties": {
        "norad_id": 35476,
        "name": "COSMOS 2251 DEB",
        "group": "cosmos-2251-debris",
        "lat": 67.59856289376637,
        "lon": 124.42731275017204,
        "alt_km": 625.2421931082245,
        "timestamp": "2025-12-02T21:34:01.666982+00:00",
        "meta_object_name": "COSMOS 2251 DEB",
        "meta_object_id": "1993-036ALW",
        "meta_epoch": "2025-12-02T08:28:00.724224",
        "meta_mean_motion": 14.75278986,
        "meta_eccentricity": 0.0017226,
        "meta_inclination": 73.9781,
        "meta_ra_of_asc_node": 81.3016,
        "meta_arg_of_pericenter": 69.3737,
        "meta_mean_anomaly": 346.9835,
        "meta_ephemeris_type": 0,
        "meta_classification_type": "U",
        "meta_norad_cat_id": 35476,
        "meta_element_set_no": 999,
        "meta_rev_at_epoch": 87734,
        "meta_bstar": 0.0023282,
        "meta_mean_motion_dot": 0.00015808,
        "meta_mean_motion_ddot": 0,
        "tle_line1": "1 35476U 93036ALW 25336.35278616  .00015808  00000+0  23282-2 0  9993",
        "tle_line2": "2 35476  73.9781  81.3016 0017226  69.3737 346.9835 14.75278986877348"
      },
      "geometry": {
        "type": "Point",
        "coordinates": [
          124.42731275017204,
          67.59856289376637
        ]
      }
    },
    {
      "type": "Feature",
      "properties": {
        "norad_id": 35580,
        "name": "COSMOS 2251 DEB",
        "group": "cosmos-2251-debris",
        "lat": 4.318963784471757,
        "lon": 14.221165101119714,
        "alt_km": 766.1471502326804,
        "timestamp": "2025-12-02T21:34:01.666992+00:00",
        "meta_object_name": "COSMOS 2251 DEB",
        "meta_object_id": "1993-036ALX",
        "meta_epoch": "2025-11-11T02:25:47.460864",
        "meta_mean_motion": 13.83664367,
        "meta_eccentricity": 0.0284653,
        "meta_inclination": 73.9022,
        "meta_ra_of_asc_node": 232.5156,
        "meta_arg_of_pericenter": 243.9426,
        "meta_mean_anomaly": 113.2144,
        "meta_ephemeris_type": 0,
        "meta_classification_type": "U",
        "meta_norad_cat_id": 35580,
        "meta_element_set_no": 999,
        "meta_rev_at_epoch": 61819,
        "meta_bstar": 0.0015271116,
        "meta_mean_motion_dot": 2.282e-05,
        "meta_mean_motion_ddot": 0,
        "tle_line1": "1 35580U 93036ALX 25315.10124376  .00002282  00000+0  15271-2 0  9993",
        "tle_line2": "2 35580  73.9022 232.5156 0284653 243.9426 113.2144 13.83664367618196"
      },
      "geometry": {
        "type": "Point",
        "coordinates": [
          14.221165101119714,
          4.318963784471757
        ]
      }
    },
    {
      "type": "Feature",
      "properties": {
        "norad_id": 35583,
        "name": "COSMOS 2251 DEB",
        "group": "cosmos-2251-debris",
        "lat": 20.002295569649274,
        "lon": 41.93821906127771,
        "alt_km": 1066.707429126479,
        "timestamp": "2025-12-02T21:34:01.667002+00:00",
        "meta_object_name": "COSMOS 2251 DEB",
        "meta_object_id": "1993-036AMA",
        "meta_epoch": "2025-12-01T09:18:45.701280",
        "meta_mean_motion": 13.55311164,
        "meta_eccentricity": 0.03859858,
        "meta_inclination": 73.9177,
        "meta_ra_of_asc_node": 230.413,
        "meta_arg_of_pericenter": 256.8414,
        "meta_mean_anomaly": 98.9367,
        "meta_ephemeris_type": 0,
        "meta_classification_type": "U",
        "meta_norad_cat_id": 35583,
        "meta_element_set_no": 999,
        "meta_rev_at_epoch": 82258,
        "meta_bstar": 0.00049161142,
        "meta_mean_motion_dot": 5.24e-06,
        "meta_mean_motion_ddot": 0,
        "tle_line1": "1 35583U 93036AMA 25335.38802895  .00000524  00000+0  49161-3 0  9990",
        "tle_line2": "2 35583  73.9177 230.4130 0385985 256.8414  98.9367 13.55311164822588"
      },
      "geometry": {
        "type": "Point",
        "coordinates": [
          41.93821906127771,
          20.002295569649274
        ]
      }
    }
  ]
}